STARLINK-36535          
1 67986U 26039A   26087.58335648  .00049101  00000+0  17376-2 0  9991
2 67986  42.9994 302.7725 0001598 254.0930 216.6219 15.28406162  5914
STARLINK-36744          
1 67987U 26039B   26087.58335648  .00039189  00000+0  14272-2 0  9999
2 67987  42.9995 302.5632 0001872 258.2790 298.2277 15.27553957  5910
STARLINK-36734          
1 67988U 26039C   26087.58335648 -.01830973  00000+0 -39563-1 0  9992
2 67988  42.9994 303.1402 0001746 249.7126  78.2354 15.46784793  5917
STARLINK-36957          
1 67989U 26039D   26087.58335648  .00037849  00000+0  13448-2 0  9996
2 67989  42.9992 302.4945 0001611 249.0433 336.6351 15.28377885  5913
STARLINK-36951          
1 67990U 26039E   26087.58335648 -.01844860  00000+0 -57828-1 0  9999
2 67990  42.9992 302.4878 0001270 268.5644 322.6216 15.35750512  5916
STARLINK-36941          
1 67991U 26039F   26087.58739432  .00083283  00000+0  14074-2 0  9997
2 67991  42.9978 303.0912 0001162 264.8712  95.2016 15.50637732  4580
STARLINK-36950          
1 67992U 26039G   26087.30276449 -.00093198  00000+0 -16885-2 0  9992
2 67992  42.9996 304.3842 0002814 322.3667  37.6995 15.49089084  4542
STARLINK-36975          
1 67993U 26039H   26087.58335648 -.01930906  00000+0 -42354-1 0  9997
2 67993  42.9994 302.6583 0001193 267.3949 254.9921 15.46528529  5918
STARLINK-36993          
1 67994U 26039J   26087.58335648 -.01826288  00000+0 -62416-1 0  9996
2 67994  42.9992 302.2552 0001550 243.5019  80.4442 15.33020188  5914
STARLINK-36968          
1 67995U 26039K   26087.30989634  .00092351  00000+0  15598-2 0  9990
2 67995  42.9991 304.4411 0001060 282.6826  77.3916 15.50609068  4546
STARLINK-36979          
1 67996U 26039L   26087.58335648 -.01830656  00000+0 -65106-1 0  9991
2 67996  42.9990 302.1852 0001661 246.7820 104.7836 15.31772506  5917
STARLINK-36994          
1 67997U 26039M   26087.58335648 -.01887259  00000+0 -43078-1 0  9997
2 67997  43.0000 302.2082 0001440 255.9194  88.1878 15.45305004  5910
