CCSDS_OMM_VERS = 2.0
CREATION_DATE  = 
ORIGINATOR     = 

OBJECT_NAME    = STARLINK-36535
OBJECT_ID      = 2026-039A
CENTER_NAME    = EARTH
REF_FRAME      = TEME
TIME_SYSTEM    = UTC
MEAN_ELEMENT_THEORY = SGP/SGP4

EPOCH          = 2026-03-28T14:00:01.999872
MEAN_MOTION    = 15.28406162
ECCENTRICITY   = .00015982
INCLINATION    = 42.9994
RA_OF_ASC_NODE = 302.7725
ARG_OF_PERICENTER = 254.0930
MEAN_ANOMALY   = 216.6219

EPHEMERIS_TYPE = 0
CLASSIFICATION_TYPE = U
NORAD_CAT_ID   = 67986
ELEMENT_SET_NO = 999
REV_AT_EPOCH   = 591
BSTAR          = .17376076E-2
MEAN_MOTION_DOT = .49101E-3
MEAN_MOTION_DDOT = 0

CCSDS_OMM_VERS = 2.0
CREATION_DATE  = 
ORIGINATOR     = 

OBJECT_NAME    = STARLINK-36744
OBJECT_ID      = 2026-039B
CENTER_NAME    = EARTH
REF_FRAME      = TEME
TIME_SYSTEM    = UTC
MEAN_ELEMENT_THEORY = SGP/SGP4

EPOCH          = 2026-03-28T14:00:01.999872
MEAN_MOTION    = 15.27553957
ECCENTRICITY   = .0001872
INCLINATION    = 42.9995
RA_OF_ASC_NODE = 302.5632
ARG_OF_PERICENTER = 258.2790
MEAN_ANOMALY   = 298.2277

EPHEMERIS_TYPE = 0
CLASSIFICATION_TYPE = U
NORAD_CAT_ID   = 67987
ELEMENT_SET_NO = 999
REV_AT_EPOCH   = 591
BSTAR          = .1427172E-2
MEAN_MOTION_DOT = .39189E-3
MEAN_MOTION_DDOT = 0

CCSDS_OMM_VERS = 2.0
CREATION_DATE  = 
ORIGINATOR     = 

OBJECT_NAME    = STARLINK-36734
OBJECT_ID      = 2026-039C
CENTER_NAME    = EARTH
REF_FRAME      = TEME
TIME_SYSTEM    = UTC
MEAN_ELEMENT_THEORY = SGP/SGP4

EPOCH          = 2026-03-28T14:00:01.999872
MEAN_MOTION    = 15.46784793
ECCENTRICITY   = .00017467
INCLINATION    = 42.9994
RA_OF_ASC_NODE = 303.1402
ARG_OF_PERICENTER = 249.7126
MEAN_ANOMALY   = 78.2354

EPHEMERIS_TYPE = 0
CLASSIFICATION_TYPE = U
NORAD_CAT_ID   = 67988
ELEMENT_SET_NO = 999
REV_AT_EPOCH   = 591
BSTAR          = -.39562564E-1
MEAN_MOTION_DOT = -.1830973E-1
MEAN_MOTION_DDOT = 0

CCSDS_OMM_VERS = 2.0
CREATION_DATE  = 
ORIGINATOR     = 

OBJECT_NAME    = STARLINK-36957
OBJECT_ID      = 2026-039D
CENTER_NAME    = EARTH
REF_FRAME      = TEME
TIME_SYSTEM    = UTC
MEAN_ELEMENT_THEORY = SGP/SGP4

EPOCH          = 2026-03-28T14:00:01.999872
MEAN_MOTION    = 15.28377885
ECCENTRICITY   = .00016116
INCLINATION    = 42.9992
RA_OF_ASC_NODE = 302.4945
ARG_OF_PERICENTER = 249.0433
MEAN_ANOMALY   = 336.6351

EPHEMERIS_TYPE = 0
CLASSIFICATION_TYPE = U
NORAD_CAT_ID   = 67989
ELEMENT_SET_NO = 999
REV_AT_EPOCH   = 591
BSTAR          = .13447602E-2
MEAN_MOTION_DOT = .37849E-3
MEAN_MOTION_DDOT = 0

CCSDS_OMM_VERS = 2.0
CREATION_DATE  = 
ORIGINATOR     = 

OBJECT_NAME    = STARLINK-36951
OBJECT_ID      = 2026-039E
CENTER_NAME    = EARTH
REF_FRAME      = TEME
TIME_SYSTEM    = UTC
MEAN_ELEMENT_THEORY = SGP/SGP4

EPOCH          = 2026-03-28T14:00:01.999872
MEAN_MOTION    = 15.35750512
ECCENTRICITY   = .00012705
INCLINATION    = 42.9992
RA_OF_ASC_NODE = 302.4878
ARG_OF_PERICENTER = 268.5644
MEAN_ANOMALY   = 322.6216

EPHEMERIS_TYPE = 0
CLASSIFICATION_TYPE = U
NORAD_CAT_ID   = 67990
ELEMENT_SET_NO = 999
REV_AT_EPOCH   = 591
BSTAR          = -.57828022E-1
MEAN_MOTION_DOT = -.184486E-1
MEAN_MOTION_DDOT = 0

CCSDS_OMM_VERS = 2.0
CREATION_DATE  = 
ORIGINATOR     = 

OBJECT_NAME    = STARLINK-36941
OBJECT_ID      = 2026-039F
CENTER_NAME    = EARTH
REF_FRAME      = TEME
TIME_SYSTEM    = UTC
MEAN_ELEMENT_THEORY = SGP/SGP4

EPOCH          = 2026-03-28T14:05:50.869248
MEAN_MOTION    = 15.50637732
ECCENTRICITY   = .00011628
INCLINATION    = 42.9978
RA_OF_ASC_NODE = 303.0912
ARG_OF_PERICENTER = 264.8712
MEAN_ANOMALY   = 95.2016

EPHEMERIS_TYPE = 0
CLASSIFICATION_TYPE = U
NORAD_CAT_ID   = 67991
ELEMENT_SET_NO = 999
REV_AT_EPOCH   = 458
BSTAR          = .14074284E-2
MEAN_MOTION_DOT = .83283E-3
MEAN_MOTION_DDOT = 0

CCSDS_OMM_VERS = 2.0
CREATION_DATE  = 
ORIGINATOR     = 

OBJECT_NAME    = STARLINK-36950
OBJECT_ID      = 2026-039G
CENTER_NAME    = EARTH
REF_FRAME      = TEME
TIME_SYSTEM    = UTC
MEAN_ELEMENT_THEORY = SGP/SGP4

EPOCH          = 2026-03-28T07:15:58.851936
MEAN_MOTION    = 15.49089084
ECCENTRICITY   = .0002814
INCLINATION    = 42.9996
RA_OF_ASC_NODE = 304.3842
ARG_OF_PERICENTER = 322.3667
MEAN_ANOMALY   = 37.6995

EPHEMERIS_TYPE = 0
CLASSIFICATION_TYPE = U
NORAD_CAT_ID   = 67992
ELEMENT_SET_NO = 999
REV_AT_EPOCH   = 454
BSTAR          = -.16885E-2
MEAN_MOTION_DOT = -.93198E-3
MEAN_MOTION_DDOT = 0

CCSDS_OMM_VERS = 2.0
CREATION_DATE  = 
ORIGINATOR     = 

OBJECT_NAME    = STARLINK-36975
OBJECT_ID      = 2026-039H
CENTER_NAME    = EARTH
REF_FRAME      = TEME
TIME_SYSTEM    = UTC
MEAN_ELEMENT_THEORY = SGP/SGP4

EPOCH          = 2026-03-28T14:00:01.999872
MEAN_MOTION    = 15.46528529
ECCENTRICITY   = .00011932
INCLINATION    = 42.9994
RA_OF_ASC_NODE = 302.6583
ARG_OF_PERICENTER = 267.3949
MEAN_ANOMALY   = 254.9921

EPHEMERIS_TYPE = 0
CLASSIFICATION_TYPE = U
NORAD_CAT_ID   = 67993
ELEMENT_SET_NO = 999
REV_AT_EPOCH   = 591
BSTAR          = -.42353952E-1
MEAN_MOTION_DOT = -.1930906E-1
MEAN_MOTION_DDOT = 0

CCSDS_OMM_VERS = 2.0
CREATION_DATE  = 
ORIGINATOR     = 

OBJECT_NAME    = STARLINK-36993
OBJECT_ID      = 2026-039J
CENTER_NAME    = EARTH
REF_FRAME      = TEME
TIME_SYSTEM    = UTC
MEAN_ELEMENT_THEORY = SGP/SGP4

EPOCH          = 2026-03-28T14:00:01.999872
MEAN_MOTION    = 15.33020188
ECCENTRICITY   = .00015509
INCLINATION    = 42.9992
RA_OF_ASC_NODE = 302.2552
ARG_OF_PERICENTER = 243.5019
MEAN_ANOMALY   = 80.4442

EPHEMERIS_TYPE = 0
CLASSIFICATION_TYPE = U
NORAD_CAT_ID   = 67994
ELEMENT_SET_NO = 999
REV_AT_EPOCH   = 591
BSTAR          = -.6241618E-1
MEAN_MOTION_DOT = -.1826288E-1
MEAN_MOTION_DDOT = 0

CCSDS_OMM_VERS = 2.0
CREATION_DATE  = 
ORIGINATOR     = 

OBJECT_NAME    = STARLINK-36968
OBJECT_ID      = 2026-039K
CENTER_NAME    = EARTH
REF_FRAME      = TEME
TIME_SYSTEM    = UTC
MEAN_ELEMENT_THEORY = SGP/SGP4

EPOCH          = 2026-03-28T07:26:15.043776
MEAN_MOTION    = 15.50609068
ECCENTRICITY   = .00010606
INCLINATION    = 42.9991
RA_OF_ASC_NODE = 304.4411
ARG_OF_PERICENTER = 282.6826
MEAN_ANOMALY   = 77.3916

EPHEMERIS_TYPE = 0
CLASSIFICATION_TYPE = U
NORAD_CAT_ID   = 67995
ELEMENT_SET_NO = 999
REV_AT_EPOCH   = 454
BSTAR          = .15598399E-2
MEAN_MOTION_DOT = .92351E-3
MEAN_MOTION_DDOT = 0

CCSDS_OMM_VERS = 2.0
CREATION_DATE  = 
ORIGINATOR     = 

OBJECT_NAME    = STARLINK-36979
OBJECT_ID      = 2026-039L
CENTER_NAME    = EARTH
REF_FRAME      = TEME
TIME_SYSTEM    = UTC
MEAN_ELEMENT_THEORY = SGP/SGP4

EPOCH          = 2026-03-28T14:00:01.999872
MEAN_MOTION    = 15.31772506
ECCENTRICITY   = .00016611
INCLINATION    = 42.9990
RA_OF_ASC_NODE = 302.1852
ARG_OF_PERICENTER = 246.7820
MEAN_ANOMALY   = 104.7836

EPHEMERIS_TYPE = 0
CLASSIFICATION_TYPE = U
NORAD_CAT_ID   = 67996
ELEMENT_SET_NO = 999
REV_AT_EPOCH   = 591
BSTAR          = -.65105732E-1
MEAN_MOTION_DOT = -.1830656E-1
MEAN_MOTION_DDOT = 0

CCSDS_OMM_VERS = 2.0
CREATION_DATE  = 
ORIGINATOR     = 

OBJECT_NAME    = STARLINK-36994
OBJECT_ID      = 2026-039M
CENTER_NAME    = EARTH
REF_FRAME      = TEME
TIME_SYSTEM    = UTC
MEAN_ELEMENT_THEORY = SGP/SGP4

EPOCH          = 2026-03-28T14:00:01.999872
MEAN_MOTION    = 15.45305004
ECCENTRICITY   = .00014405
INCLINATION    = 43.0000
RA_OF_ASC_NODE = 302.2082
ARG_OF_PERICENTER = 255.9194
MEAN_ANOMALY   = 88.1878

EPHEMERIS_TYPE = 0
CLASSIFICATION_TYPE = U
NORAD_CAT_ID   = 67997
ELEMENT_SET_NO = 999
REV_AT_EPOCH   = 591
BSTAR          = -.43078038E-1
MEAN_MOTION_DOT = -.1887259E-1
MEAN_MOTION_DDOT = 0

